{
  "type": "FeatureCollection",
  "features": [
    {
      "type": "Feature",
      "properties": {
        "norad_id": 36990,
        "name": "FENGYUN 1C DEB",
        "group": "fengyun-1c-debris",
        "lat": 27.035954339122394,
        "lon": 125.51261869273573,
        "alt_km": 1245.5682180952626,
        "timestamp": "2025-12-22T23:36:21.002454+00:00",
        "meta_object_name": "FENGYUN 1C DEB",
        "meta_object_id": "1999-025EBW",
        "meta_epoch": "2025-12-05T02:36:38.289600",
        "meta_mean_motion": 13.56914719,
        "meta_eccentricity": 0.0292772,
        "meta_inclination": 96.5839,
        "meta_ra_of_asc_node": 290.134,
        "meta_arg_of_pericenter": 44.0413,
        "meta_mean_anomaly": 318.3658,
        "meta_ephemeris_type": 0,
        "meta_classification_type": "U",
        "meta_norad_cat_id": 36990,
        "meta_element_set_no": 999,
        "meta_rev_at_epoch": 82784,
        "meta_bstar": 0.0013157618,
        "meta_mean_motion_dot": 1.212e-05,
        "meta_mean_motion_ddot": 0,
        "tle_line1": "1 36990U 99025EBW 25339.10877650  .00001212  00000+0  13158-2 0  9993",
        "tle_line2": "2 36990  96.5839 290.1340 0292772  44.0413 318.3658 13.56914719827842"
      },
      "geometry": {
        "type": "Point",
        "coordinates": [
          125.51261869273573,
          27.035954339122394
        ]
      }
    },
    {
      "type": "Feature",
      "properties": {
        "norad_id": 36994,
        "name": "FENGYUN 1C DEB",
        "group": "fengyun-1c-debris",
        "lat": 59.48002675036126,
        "lon": 153.47998111675307,
        "alt_km": 988.6639927207179,
        "timestamp": "2025-12-22T23:36:21.002464+00:00",
        "meta_object_name": "FENGYUN 1C DEB",
        "meta_object_id": "1999-025ECA",
        "meta_epoch": "2025-12-21T03:51:34.299360",
        "meta_mean_motion": 13.90789681,
        "meta_eccentricity": 0.01144877,
        "meta_inclination": 98.6439,
        "meta_ra_of_asc_node": 316.8302,
        "meta_arg_of_pericenter": 269.8246,
        "meta_mean_anomaly": 88.9796,
        "meta_ephemeris_type": 0,
        "meta_classification_type": "U",
        "meta_norad_cat_id": 36994,
        "meta_element_set_no": 999,
        "meta_rev_at_epoch": 81024,
        "meta_bstar": 9.9585318e-05,
        "meta_mean_motion_dot": 9e-07,
        "meta_mean_motion_ddot": 0,
        "tle_line1": "1 36994U 99025ECA 25355.16081365  .00000090  00000+0  99585-4 0  9994",
        "tle_line2": "2 36994  98.6439 316.8302 0114487 269.8246  88.9796 13.90789681810241"
      },
      "geometry": {
        "type": "Point",
        "coordinates": [
          153.47998111675307,
          59.48002675036126
        ]
      }
    },
    {
      "type": "Feature",
      "properties": {
        "norad_id": 36995,
        "name": "FENGYUN 1C DEB",
        "group": "fengyun-1c-debris",
        "lat": -2.465670330957,
        "lon": 54.50823575511442,
        "alt_km": 884.4399327942192,
        "timestamp": "2025-12-22T23:36:21.002473+00:00",
        "meta_object_name": "FENGYUN 1C DEB",
        "meta_object_id": "1999-025ECB",
        "meta_epoch": "2025-12-21T10:50:27.809664",
        "meta_mean_motion": 14.04870407,
        "meta_eccentricity": 0.00383848,
        "meta_inclination": 98.3428,
        "meta_ra_of_asc_node": 233.4615,
        "meta_arg_of_pericenter": 285.703,
        "meta_mean_anomaly": 73.9907,
        "meta_ephemeris_type": 0,
        "meta_classification_type": "U",
        "meta_norad_cat_id": 36995,
        "meta_element_set_no": 999,
        "meta_rev_at_epoch": 63679,
        "meta_bstar": 0.0002276039,
        "meta_mean_motion_dot": 3.29e-06,
        "meta_mean_motion_ddot": 0,
        "tle_line1": "1 36995U 99025ECB 25355.45171076  .00000329  00000+0  22760-3 0  9991",
        "tle_line2": "2 36995  98.3428 233.4615 0038384 285.7030  73.9907 14.04870407636794"
      },
      "geometry": {
        "type": "Point",
        "coordinates": [
          54.50823575511442,
          -2.465670330957
        ]
      }
    },
    {
      "type": "Feature",
      "properties": {
        "norad_id": 36996,
        "name": "FENGYUN 1C DEB",
        "group": "fengyun-1c-debris",
        "lat": 3.954573244210044,
        "lon": -31.043418232388557,
        "alt_km": 1003.0245436412788,
        "timestamp": "2025-12-22T23:36:21.002483+00:00",
        "meta_object_name": "FENGYUN 1C DEB",
        "meta_object_id": "1999-025ECC",
        "meta_epoch": "2025-12-19T06:51:36.156096",
        "meta_mean_motion": 14.11557729,
        "meta_eccentricity": 0.0254059,
        "meta_inclination": 98.2257,
        "meta_ra_of_asc_node": 144.9888,
        "meta_arg_of_pericenter": 330.3469,
        "meta_mean_anomaly": 147.4127,
        "meta_ephemeris_type": 0,
        "meta_classification_type": "U",
        "meta_norad_cat_id": 36996,
        "meta_element_set_no": 999,
        "meta_rev_at_epoch": 59784,
        "meta_bstar": 0.00056112,
        "meta_mean_motion_dot": 1.337e-05,
        "meta_mean_motion_ddot": 0,
        "tle_line1": "1 36996U 99025ECC 25353.28583514  .00001337  00000+0  56112-3 0  9993",
        "tle_line2": "2 36996  98.2257 144.9888 0254059 330.3469 147.4127 14.11557729597844"
      },
      "geometry": {
        "type": "Point",
        "coordinates": [
          -31.043418232388557,
          3.954573244210044
        ]
      }
    },
    {
      "type": "Feature",
      "properties": {
        "norad_id": 37003,
        "name": "FENGYUN 1C DEB",
        "group": "fengyun-1c-debris",
        "lat": 23.951358923878935,
        "lon": 16.240299238261173,
        "alt_km": 929.6415434111705,
        "timestamp": "2025-12-22T23:36:21.002494+00:00",
        "meta_object_name": "FENGYUN 1C DEB",
        "meta_object_id": "1999-025ECK",
        "meta_epoch": "2025-12-18T07:48:02.434752",
        "meta_mean_motion": 13.96231437,
        "meta_eccentricity": 0.00968579,
        "meta_inclination": 98.8458,
        "meta_ra_of_asc_node": 15.7304,
        "meta_arg_of_pericenter": 147.1253,
        "meta_mean_anomaly": 235.2095,
        "meta_ephemeris_type": 0,
        "meta_classification_type": "U",
        "meta_norad_cat_id": 37003,
        "meta_element_set_no": 999,
        "meta_rev_at_epoch": 60735,
        "meta_bstar": 0.00036300048,
        "meta_mean_motion_dot": 4.78e-06,
        "meta_mean_motion_ddot": 0,
        "tle_line1": "1 37003U 99025ECK 25352.32502818  .00000478  00000+0  36300-3 0  9997",
        "tle_line2": "2 37003  98.8458  15.7304 0096857 147.1253 235.2095 13.96231437607351"
      },
      "geometry": {
        "type": "Point",
        "coordinates": [
          16.240299238261173,
          23.951358923878935
        ]
      }
    },
    {
      "type": "Feature",
      "properties": {
        "norad_id": 37006,
        "name": "FENGYUN 1C DEB",
        "group": "fengyun-1c-debris",
        "lat": 53.4519429076955,
        "lon": 79.36564457467703,
        "alt_km": 726.1421305799695,
        "timestamp": "2025-12-22T23:36:21.002504+00:00",
        "meta_object_name": "FENGYUN 1C DEB",
        "meta_object_id": "1999-025ECN",
        "meta_epoch": "2025-12-21T12:12:10.675296",
        "meta_mean_motion": 14.48956775,
        "meta_eccentricity": 0.02551672,
        "meta_inclination": 99.2983,
        "meta_ra_of_asc_node": 244.9711,
        "meta_arg_of_pericenter": 221.9698,
        "meta_mean_anomaly": 136.169,
        "meta_ephemeris_type": 0,
        "meta_classification_type": "U",
        "meta_norad_cat_id": 37006,
        "meta_element_set_no": 999,
        "meta_rev_at_epoch": 65241,
        "meta_bstar": 0.00048410661,
        "meta_mean_motion_dot": 2.709e-05,
        "meta_mean_motion_ddot": 0,
        "tle_line1": "1 37006U 99025ECN 25355.50845689  .00002709  00000+0  48411-3 0  9994",
        "tle_line2": "2 37006  99.2983 244.9711 0255167 221.9698 136.1690 14.48956775652419"
      },
      "geometry": {
        "type": "Point",
        "coordinates": [
          79.36564457467703,
          53.4519429076955
        ]
      }
    },
    {
      "type": "Feature",
      "properties": {
        "norad_id": 37008,
        "name": "FENGYUN 1C DEB",
        "group": "fengyun-1c-debris",
        "lat": 76.38836919717276,
        "lon": -22.396577948112473,
        "alt_km": 885.0476936832183,
        "timestamp": "2025-12-22T23:36:21.002514+00:00",
        "meta_object_name": "FENGYUN 1C DEB",
        "meta_object_id": "1999-025ECQ",
        "meta_epoch": "2025-12-21T14:43:18.320736",
        "meta_mean_motion": 14.07962569,
        "meta_eccentricity": 0.0062632,
        "meta_inclination": 99.1355,
        "meta_ra_of_asc_node": 114.5707,
        "meta_arg_of_pericenter": 229.1241,
        "meta_mean_anomaly": 130.4491,
        "meta_ephemeris_type": 0,
        "meta_classification_type": "U",
        "meta_norad_cat_id": 37008,
        "meta_element_set_no": 999,
        "meta_rev_at_epoch": 60439,
        "meta_bstar": 0.0010326,
        "meta_mean_motion_dot": 1.74e-05,
        "meta_mean_motion_ddot": 0,
        "tle_line1": "1 37008U 99025ECQ 25355.61340649  .00001740  00000+0  10326-2 0  9991",
        "tle_line2": "2 37008  99.1355 114.5707 0062632 229.1241 130.4491 14.07962569604390"
      },
      "geometry": {
        "type": "Point",
        "coordinates": [
          -22.396577948112473,
          76.38836919717276
        ]
      }
    }
  ]
}